satname,norad_id,inclination_deg,eccentricity,mean_motion_rev_per_day,perigee_km,apogee_km,l1,l2
STARLINK-1008,44714,53.0528,0.0001574,15.06392841,546.1434460124929,548.323552645681,1 44714U 19074B   25276.13107144  .00025038  00000+0  16942-2 0  9995,2 44714  53.0528 173.9279 0001574 105.0028 255.1136 15.06392841325008
STARLINK-1010,44716,53.0474,0.0005664,15.83264156,317.4224022078379,325.0114303241844,1 44716U 19074D   25276.66670139  .00172215  00000+0  76759-3 0  9997,2 44716  53.0474 113.7484 0005664 100.7339 326.3979 15.83264156  6016
STARLINK-1011,44717,53.0492,0.0006907,15.73116196,345.34999098103526,354.64423544502915,1 44717U 19074E   25276.66670139  .00248041  00000+0  17243-2 0  9991,2 44717  53.0492 168.5069 0006907 110.5623  17.4748 15.73116196  5986
STARLINK-1012,44718,53.0523,0.0001628,15.06386316,546.1260441718696,548.3809513179349,1 44718U 19074F   25276.04259635  .00026096  00000+0  17650-2 0  9994,2 44718  53.0523 174.3246 0001628  75.1484 284.9685 15.06386316324984
STARLINK-1015,44721,53.0277,0.0004115,16.4072297,161.1879724856608,166.57205248693754,1 44721U 19074J   25276.90238792  .09718325  12379-4  64726-3 0  9990,2 44721  53.0277  97.1891 0004115 267.3524  92.7051 16.40722970326136
STARLINK-1017,44723,53.0519,0.0004522,15.12279891,526.1254337715982,532.3724736281238,1 44723U 19074L   25276.41554670  .00046530  00000+0  26576-2 0  9990,2 44723  53.0519 170.6499 0004522  83.6134 276.5373 15.12279891325074
STARLINK-1019,44724,53.0537,0.0002055,15.0638478,545.8350367242329,548.6813741536689,1 44724U 19074M   25276.10525397  .00011164  00000+0  76752-3 0  9998,2 44724  53.0537 174.0455 0002055  59.7337 300.3855 15.06384780324991
STARLINK-1020,44725,53.0533,0.0001448,15.06413029,546.1688415285325,548.1744109066849,1 44725U 19074N   25276.50886311  .00026079  00000+0  17626-2 0  9994,2 44725  53.0533 192.2324 0001448  79.7831 280.3321 15.06413029324771
STARLINK-1021,44726,53.0372,0.0004997,16.07948229,249.1645050764473,255.7911415308572,1 44726U 19074P   25276.67167049  .00838763  38835-3  99417-3 0  9994,2 44726  53.0372 105.3879 0004997 301.0846  58.9696 16.07948229326001
STARLINK-1029,44734,53.0496,0.0002717,15.98998922,275.38678154509125,279.0032889730519,1 44734U 19074X   25276.66670139  .00620439  18009-3  12577-2 0  9992,2 44734  53.0496  29.9727 0002717 351.4478 239.3794 15.98998922  5819
STARLINK-1031,44736,53.0529,0.0009239,15.4067234,437.8207138531425,450.4268873605042,1 44736U 19074Z   25275.92539925  .00087365  00000+0  20925-2 0  9998,2 44736  53.0529 171.7619 0009239  86.8085 273.3976 15.40672340325021
STARLINK-1036,44741,53.0529,0.0001288,15.06390134,546.3498071834256,548.1337847612676,1 44741U 19074AE  25276.47200735  .00011268  00000+0  77434-3 0  9996,2 44741  53.0529 192.4008 0001288  91.7700 268.3437 15.06390134324771
STARLINK-1039,44744,53.0498,0.000675,15.1074183,529.270705155719,538.602004184524,1 44744U 19074AH  25276.23983779  .00082175  00000+0  48588-2 0  9991,2 44744  53.0498 212.4494 0006750  53.0124 307.1484 15.10741830324470
STARLINK-1042,44747,53.046,0.0003377,15.41608278,439.059298408456,443.66518819738303,1 44747U 19074AL  25275.88499058  .00028607  00000+0  67654-3 0  9992,2 44747  53.0460 127.1933 0003377  67.2756 292.8605 15.41608278325661
STARLINK-1043,44748,53.0523,0.0001233,15.06402584,546.349743861053,548.0575328624736,1 44748U 19074AM  25276.44435773  .00017240  00000+0  11734-2 0  9998,2 44748  53.0523 212.5229 0001233  89.7180 270.3950 15.06402584324495
STARLINK-1046,44751,53.0548,0.0002009,15.0639368,545.8396214790382,548.6222343124664,1 44751U 19074AQ  25276.06102050 -.00000068  00000+0  14370-4 0  9991,2 44751  53.0548 214.2434 0002009 106.3566 253.7644 15.06393680324434
STARLINK-1047,44752,53.0712,0.0005549,15.28448834,476.6428977224987,484.2545561622592,1 44752U 19074AR  25275.93001371  .00015732  00000+0  57178-3 0  9996,2 44752  53.0712 160.7107 0005549  88.1829 271.9806 15.28448834325182
STARLINK-1048,44753,53.0529,0.0001454,15.06400231,546.2039043792556,548.2177955340239,1 44753U 19074AS  25276.15317507  .00029173  00000+0  19693-2 0  9996,2 44753  53.0529 173.8281 0001454  74.7095 285.4055 15.06400231325006
STARLINK-1053,44758,53.0408,0.0002248,15.56866845,395.2083743055646,398.2543551223407,1 44758U 19074AX  25276.32668440  .00085769  00000+0  11668-2 0  9992,2 44758  53.0408 141.8511 0002248 124.2652 235.8572 15.56866845325487
STARLINK-1054,44759,53.0461,0.0009032,15.72435628,345.8597110858109,358.016919135026,1 44759U 19074AY  25276.66670139  .00319494  00000+0  22638-2 0  9992,2 44759  53.0461 168.6908 0009032  84.9497 312.1300 15.72435628  5966
STARLINK-1056,44761,53.0404,0.0008024,15.84484897,312.4027341421688,323.14833457730947,1 44761U 19074BA  25276.66670139  .00326439  00000+0  13452-2 0  9996,2 44761  53.0404 157.0190 0008024  94.9698 358.2400 15.84484897  5995
STARLINK-1057,44762,53.0297,0.0005298,16.42729607,155.0882936415228,162.01456870319362,1 44762U 19074BB  25276.94267171  .10283524  12440-4  51226-3 0  9992,2 44762  53.0297 123.5661 0005298 271.4703  88.5738 16.42729607325770
STARLINK-1060,44765,53.0548,0.000121,15.49439265,417.542946866085,419.1877004284079,1 44765U 19074BE  25276.66670139  .00501045  00000+0  84124-2 0  9992,2 44765  53.0548 186.3162 0001210 104.8793 216.3924 15.49439265  5815
STARLINK-1063,44768,53.0535,0.0001751,15.06397088,546.0078527180103,548.4331129084921,1 44768U 19074BH  25276.51439009  .00021276  00000+0  14430-2 0  9994,2 44768  53.0535 212.2067 0001751  83.3702 276.7486 15.06397088324511
STARLINK-1067,44771,53.0554,0.0002048,15.06379379,545.856434726019,548.6930833825263,1 44771U 19074BL  25276.23795721  .00002026  00000+0  15494-3 0  9997,2 44771  53.0554 213.4468 0002048 103.0414 257.0804 15.06379379324467
STARLINK-1068,44772,53.0524,0.0001266,15.06390846,546.3628610926289,548.116366451236,1 44772U 19074BM  25276.16239063  .00031832  00000+0  21468-2 0  9996,2 44772  53.0524 193.7885 0001266  94.2864 265.8270 15.06390846324724
STARLINK-1112,44925,53.0515,1.65e-05,15.48288198,421.62125863135043,421.84565435641525,1 44925U 20001M   25276.66670139  .00080494  00000+0  14927-2 0  9996,2 44925  53.0515 298.2519 0000165 142.1809  20.5047 15.48288198  5779
STARLINK-1114,44927,53.0551,0.0001611,15.06364909,546.2034179079064,548.4347998661888,1 44927U 20001P   25276.53281148  .00028509  00000+0  19269-2 0  9995,2 44927  53.0551 332.1269 0001611  76.3982 283.7186 15.06364909316162
STARLINK-1123,44930,53.0553,0.0001697,15.06387063,546.0759698848296,548.4264466427148,1 44930U 20001S   25276.48122683  .00000920  00000+0  80689-4 0  9994,2 44930  53.0553 332.3571 0001697  75.7782 284.3395 15.06387063316155
STARLINK-1144,44933,53.046,0.0013058,15.53131025,398.73015282732194,416.45175995823683,1 44933U 20001V   25276.40543314  .00182934  00000+0  28022-2 0  9994,2 44933  53.0460 277.5655 0013058 348.7906  11.2810 15.53131025318218
STARLINK-1091,44940,53.038,0.0003055,15.82374464,321.68040798901256,325.775247398733,1 44940U 20001AC  25276.66670139  .00282306  00000+0  12941-2 0  9993,2 44940  53.0380 259.4334 0003055  50.9959 326.7823 15.82374464  5990
STARLINK-1094,44941,53.0544,0.0001239,15.06393593,546.373141420796,548.0892476594017,1 44941U 20001AD  25276.42778460  .00004387  00000+0  31330-3 0  9999,2 44941  53.0544 312.5959 0001239 107.3723 252.7402 15.06393593316429
STARLINK-1096,44942,52.9909,0.0002189,15.79580313,330.1601062690406,333.0976417686861,1 44942U 20001AE  25276.66670139  .00167366  00000+0  88575-3 0  9990,2 44942  52.9909  86.1304 0002189 266.5431 302.9428 15.79580313  5744
STARLINK-1122,44949,53.0546,0.0001568,15.06389463,546.1579527962431,548.3297522315916,1 44949U 20001AM  25276.51623923  .00006513  00000+0  45585-3 0  9990,2 44949  53.0546 312.1954 0001568  60.4415 299.6731 15.06389463316439
STARLINK-1080,44961,53.0532,0.0001546,15.06401183,546.1372738895125,548.2785905425535,1 44961U 20001AZ  25276.44804296  .00004720  00000+0  33554-3 0  9991,2 44961  53.0532 292.5059 0001546  84.7229 275.3936 15.06401183316716
STARLINK-1090,44968,53.0526,0.000138,15.06393651,546.2753159908834,548.1867175635134,1 44968U 20001BG  25276.31903849  .00003605  00000+0  26086-3 0  9991,2 44968  53.0526 293.0867 0001380  90.4090 269.7057 15.06393651316693
STARLINK-1107,44972,53.0107,0.0007766,15.59131902,384.9119676120836,395.4244993006878,1 44972U 20001BL  25276.66670139  .00211257  00000+0  25872-2 0  9992,2 44972  53.0107 217.4698 0007766 104.8013 171.4862 15.59131902  5891
STARLINK-1132,45044,53.054,0.0001627,15.06399175,546.0873318238455,548.3408410673737,1 45044U 20006A   25276.34483135  .00003114  00000+0  22787-3 0  9995,2 45044  53.0540 252.9656 0001627  91.1969 268.9207 15.06399175313021
STARLINK-1131,45047,53.0549,0.0001355,15.06383584,546.3234795238168,548.2002626178773,1 45047U 20006D   25276.38730185  .00000933  00000+0  81586-4 0  9991,2 45047  53.0549 273.3159 0001355 102.3549 257.7591 15.06383584312742
STARLINK-1134,45048,53.0398,0.0010568,15.24865559,483.9296599886038,498.44866776857634,1 45048U 20006E   25276.66670139  .00078901  00000+0  31093-2 0  9991,2 45048  53.0398 253.7655 0010568  47.8869  36.2486 15.24865559  5842
STARLINK-1156,45054,53.0544,0.0001482,15.06378334,546.2516154063342,548.3043084010424,1 45054U 20006L   25276.29139976 -.00000312  00000+0 -20291-5 0  9990,2 45054  53.0544 273.2101 0001482  94.8686 265.2473 15.06378334312738
STARLINK-1159,45057,53.0536,0.000137,15.06375668,546.3373500484113,548.2349159868581,1 45057U 20006P   25276.43883854 -.00001580  00000+0 -87290-4 0  9999,2 45057  53.0536 272.5483 0001370  77.7309 282.3834 15.06375668312766
STARLINK-1166,45060,53.0541,0.000138,15.06411769,546.2197947598324,548.1311810064872,1 45060U 20006S   25276.38351977  .00003244  00000+0  23647-3 0  9995,2 45060  53.0541 272.7957 0001380  88.7612 271.3535 15.06411769312752
